NORAD_CAT_ID,OBJECT_NAME,OBJECT_TYPE,EPOCH,MEAN_MOTION,ECCENTRICITY,INCLINATION,RA_OF_ASC_NODE,ARG_OF_PERICENTER,MEAN_ANOMALY,BSTAR,MEAN_MOTION_DOT,MEAN_MOTION_DDOT,TLE_LINE0,TLE_LINE1,TLE_LINE2,SEMIMAJOR_AXIS,PERIOD,APOGEE,PERIGEE,DECAYED
54015.0,STARLINK-5055,PAYLOAD,2023-01-05 14:00:01,15.08898855,0.0001533,53.2154,7.3381,49.2078,183.5425,-0.0051322,-0.00081178,0.0,0 STARLINK-5055,1 54015U 22125BD  23005.58334491 -.00081178  00000-0 -51322-2 0  9996,2 54015  53.2154   7.3381 0001533  49.2078 183.5425 15.08898855  1300,6917.7,95.434,540.626,538.505,0.0
54015.0,STARLINK-5055,PAYLOAD,2023-01-05 20:00:01,15.088356,0.0001345,53.2156,6.2144,52.143,99.3461,-0.0017033,-0.0002728999999999,0.0,0 STARLINK-5055,1 54015U 22125BD  23005.83334491 -.00027290  00000-0 -17033-2 0  9990,2 54015  53.2156   6.2144 0001345  52.1430  99.3461 15.08835600  1306,6917.894,95.438,540.689,538.828,0.0
54015.0,STARLINK-5055,PAYLOAD,2023-01-06 09:38:23,15.08827553,0.0001307,53.217,3.6637,52.1516,307.9594,-0.00010143,-1.901e-05,0.0,0 STARLINK-5055,1 54015U 22125BD  23006.40166663 -.00001901  00000-0 -10143-3 0  9995,2 54015  53.2170   3.6637 0001307  52.1516 307.9594 15.08827553 14793,6917.9180000000015,95.438,540.688,538.879,0.0
54015.0,STARLINK-5055,PAYLOAD,2023-01-07 06:18:23,15.08841211,0.0001545,53.2169,359.7997,51.2574,308.8556,4.3572e-05,4.06e-06,0.0,0 STARLINK-5055,1 54015U 22125BD  23007.26277646  .00000406  00000-0  43572-4 0  9994,2 54015  53.2169 359.7997 0001545  51.2574 308.8556 15.08841211 14877,6917.877,95.437,540.81,538.673,0.0
54015.0,STARLINK-5055,PAYLOAD,2023-01-07 09:29:10,15.08841681,0.000155,53.2161,359.2049,40.7485,319.3623,2.7844e-05,1.55e-06,0.0,0 STARLINK-5055,1 54015U 22125BD  23007.39525767  .00000155  00000-0  27844-4 0  9993,2 54015  53.2161 359.2049 0001550  40.7485 319.3623 15.08841681 14943,6917.875,95.437,540.813,538.668,0.0
54015.0,STARLINK-5055,PAYLOAD,2023-01-07 15:50:43,15.0882057,0.0001326,53.216,358.0152,49.1917,310.9190000000001,0.00016682,2.367e-05,0.0,0 STARLINK-5055,1 54015U 22125BD  23007.66022700  .00002367  00000-0  16682-3 0  9996,2 54015  53.2160 358.0152 0001326  49.1917 310.9190 15.08820570 14982,6917.94,95.439,540.722,538.887,0.0
54015.0,STARLINK-5055,PAYLOAD,2023-01-08 07:44:34,15.08830975,0.0001527,53.2167,355.0406,54.0883,306.025,4.3151e-05,3.99e-06,0.0,0 STARLINK-5055,1 54015U 22125BD  23008.32262401  .00000399  00000-0  43151-4 0  9999,2 54015  53.2167 355.0406 0001527  54.0883 306.0250 15.08830975 15083,6917.908,95.438,540.8290000000002,538.717,0.0
54015.0,STARLINK-5055,PAYLOAD,2023-01-08 23:38:26,15.08836561,0.0001506,53.217,352.0668,53.4758,306.6373,-2.217e-05,-6.41e-06,0.0,0 STARLINK-5055,1 54015U 22125BD  23008.98502768 -.00000641  00000-0 -22170-4 0  9994,2 54015  53.2170 352.0668 0001506  53.4758 306.6373 15.08836561 15130,6917.891,95.438,540.798,538.714,0.0
54015.0,STARLINK-5055,PAYLOAD,2023-01-09 15:32:17,15.08846416,0.0001708,53.2181,349.0928,57.6088,302.5069,-1.4592e-05,-5.2e-06,0.0,0 STARLINK-5055,1 54015U 22125BD  23009.64742114 -.00000520  00000-0 -14592-4 0  9994,2 54015  53.2181 349.0928 0001708  57.6088 302.5069 15.08846416 15286,6917.861,95.437,540.9069999999998,538.544,0.0
54015.0,STARLINK-5055,PAYLOAD,2023-01-10 02:39:59,15.08839182,0.0001798,53.2198,347.0130000000001,63.2148,296.9028,1.5974e-05,-3.4e-07,0.0,0 STARLINK-5055,1 54015U 22125BD  23010.11110575 -.00000034  00000-0  15974-4 0  9992,2 54015  53.2198 347.0130 0001798  63.2148 296.9028 15.08839182 15357,6917.883000000002,95.438,540.992,538.504,0.0
54015.0,STARLINK-5055,PAYLOAD,2023-01-10 07:26:08,15.08837715,0.0001817,53.2178,346.1185,58.277,301.8399,4.7403e-05,4.66e-06,0.0,0 STARLINK-5055,1 54015U 22125BD  23010.30982521  .00000466  00000-0  47403-4 0  9991,2 54015  53.2178 346.1185 0001817  58.2770 301.8399 15.08837715 15337,6917.887,95.438,541.009,538.495,0.0
54015.0,STARLINK-5055,PAYLOAD,2023-01-10 15:23:05,15.08829741,0.0001715,53.2179,344.6327,64.5778,295.5392,-2.1136e-05,-6.24e-06,0.0,0 STARLINK-5055,1 54015U 22125BD  23010.64103366 -.00000624  00000-0 -21136-4 0  9993,2 54015  53.2179 344.6327 0001715  64.5778 295.5392 15.08829741 15437,6917.911999999998,95.438,540.9630000000002,538.59,0.0
54015.0,STARLINK-5055,PAYLOAD,2023-01-10 21:44:38,15.08831154,0.000147,53.2143,343.4423,62.7781,297.336,-8.769799999999999e-05,-1.683e-05,0.0,0 STARLINK-5055,1 54015U 22125BD  23010.90599638 -.00001683  00000-0 -87698-4 0  9994,2 54015  53.2143 343.4423 0001470  62.7781 297.3360 15.08831154 15429,6917.906999999998,95.438,540.789,538.755,0.0
54015.0,STARLINK-5055,PAYLOAD,2023-01-11 05:41:33,15.088383,0.000156,53.2167,341.9553,65.0832,295.0322,-1.8358e-05,-5.8e-06,0.0,0 STARLINK-5055,1 54015U 22125BD  23011.23719120 -.00000580  00000-0 -18358-4 0  9993,2 54015  53.2167 341.9553 0001560  65.0832 295.0322 15.08838300 15529,6917.886,95.438,540.83,538.6709999999998,0.0
54015.0,STARLINK-5055,PAYLOAD,2023-01-11 21:35:25,15.08832346,0.0001481,53.2168,338.9809,74.8958,285.2198,-1.8911e-05,-5.89e-06,0.0,0 STARLINK-5055,1 54015U 22125BD  23011.89959599 -.00000589  00000-0 -18911-4 0  9995,2 54015  53.2168 338.9809 0001481  74.8958 285.2198 15.08832346 15570,6917.904,95.438,540.793,538.744,0.0
54015.0,STARLINK-5055,PAYLOAD,2023-01-12 15:04:39,15.08840997,0.0001466,53.2163,335.7109,78.4175,281.6981,-5.9702e-07,-2.97e-06,0.0,0 STARLINK-5055,1 54015U 22125BD  23012.62822961 -.00000297  00000-0 -59702-6 0  9990,2 54015  53.2163 335.7109 0001466  78.4175 281.6981 15.08840997 15736,6917.877,95.437,540.757,538.7280000000002,0.0
54015.0,STARLINK-5055,PAYLOAD,2023-01-12 21:26:12,15.08830119,0.0001591,53.2177,334.5225,82.2104,277.9069,8.2165e-05,1.02e-05,0.0,0 STARLINK-5055,1 54015U 22125BD  23012.89319563  .00001020  00000-0  82165-4 0  9998,2 54015  53.2177 334.5225 0001591  82.2104 277.9069 15.08830119 15775,6917.911,95.438,540.876,538.675,0.0
54015.0,STARLINK-5055,PAYLOAD,2023-01-13 03:47:44,15.08831963,0.000124,53.2172,333.3327,85.84200000000001,274.2713,8.5305e-05,1.07e-05,0.0,0 STARLINK-5055,1 54015U 22125BD  23013.15815495  .00001070  00000-0  85305-4 0  9997,2 54015  53.2172 333.3327 0001240  85.8420 274.2713 15.08831963 15764,6917.905,95.438,540.628,538.9119999999999,0.0
54015.0,STARLINK-5055,PAYLOAD,2023-01-14 03:38:31,15.08837812,0.0001388,53.2158,328.8745,72.7151,287.3992,3.0643e-06,-2.39e-06,0.0,0 STARLINK-5055,1 54015U 22125BD  23014.15175731 -.00000239  00000-0  30643-5 0  9993,2 54015  53.2158 328.8745 0001388  72.7151 287.3992 15.08837812 15965,6917.887,95.438,540.712,538.7919999999999,0.0
54015.0,STARLINK-5055,PAYLOAD,2023-01-14 06:49:17,15.0885032,0.0001486999999999,53.2165,328.2758,85.9747,274.1415,-5.0332e-05,-1.089e-05,0.0,0 STARLINK-5055,1 54015U 22125BD  23014.28423100 -.00001089  00000-0 -50332-4 0  9994,2 54015  53.2165 328.2758 0001487  85.9747 274.1415 15.08850320 15983,6917.849,95.437,540.743,538.685,0.0
54015.0,STARLINK-5055,PAYLOAD,2023-01-15 03:29:18,15.0883314,0.0001399,53.2169,324.4091,86.509,273.6062,5.5396e-05,5.94e-06,0.0,0 STARLINK-5055,1 54015U 22125BD  23015.14535824  .00000594  00000-0  55396-4 0  9990,2 54015  53.2169 324.4091 0001399  86.5090 273.6062 15.08833140 16114,6917.901,95.438,540.734,538.799,0.0
54015.0,STARLINK-5055,PAYLOAD,2023-01-15 05:04:41,15.08840594,0.0001404,53.2176,324.1112,83.325,276.7902,-2.5143e-06,-3.28e-06,0.0,0 STARLINK-5055,1 54015U 22125BD  23015.21159507 -.00000328  00000-0 -25143-5 0  9993,2 54015  53.2176 324.1112 0001404  83.3250 276.7902 15.08840594 16076,6917.879,95.438,540.715,538.7719999999999,0.0
54015.0,STARLINK-5055,PAYLOAD,2023-01-16 03:20:03,15.08871425,0.0001113,53.2174,319.9499,89.7625,270.3495,0.00017445,2.492e-05,0.0,0 STARLINK-5055,1 54015U 22125BD  23016.13892902  .00002492  00000-0  17445-3 0  9994,2 54015  53.2174 319.9499 0001113  89.7625 270.3495 15.08871425 16262,6917.784000000001,95.436,540.419,538.879,0.0
54015.0,STARLINK-5055,PAYLOAD,2023-01-16 12:52:24,15.08840308,0.0001144,53.2173,318.1659,65.3666,294.7445,-8.936299999999999e-05,-1.7100000000000002e-05,0.0,0 STARLINK-5055,1 54015U 22125BD  23016.53639130 -.00001710  00000-0 -89363-4 0  9993,2 54015  53.2173 318.1659 0001144  65.3666 294.7445 15.08840308 16271,6917.879,95.438,540.536,538.953,0.0
54015.0,STARLINK-5055,PAYLOAD,2023-01-16 19:13:59,15.08814202,0.0002246,53.2181,316.9771,78.5176,281.6068,-0.00017767,-3.113e-05,0.0,0 STARLINK-5055,1 54015U 22125BD  23016.80137783 -.00003113  00000-0 -17767-3 0  9997,2 54015  53.2181 316.9771 0002246  78.5176 281.6068 15.08814202 16367,6917.959,95.439,541.378,538.27,0.0
54015.0,STARLINK-5055,PAYLOAD,2023-01-16 22:24:46,15.08809734,0.0001448,53.217,316.3822,79.358,280.7575,-0.00035155,-5.874e-05,0.0,0 STARLINK-5055,1 54015U 22125BD  23016.93386798 -.00005874  00000-0 -35155-3 0  9990,2 54015  53.2170 316.3822 0001448  79.3580 280.7575 15.08809734 16386,6917.973000000001,95.439,540.84,538.836,0.0
54015.0,STARLINK-5055,PAYLOAD,2023-01-17 04:46:18,15.08817783,0.000121,53.2176,315.1904,89.5036,270.6095,-0.00020576,-3.559e-05,0.0,0 STARLINK-5055,1 54015U 22125BD  23017.19882006 -.00003559  00000-0 -20576-3 0  9991,2 54015  53.2176 315.1904 0001210  89.5036 270.6095 15.08817783 16429,6917.948,95.439,540.65,538.976,0.0
54015.0,STARLINK-5055,PAYLOAD,2023-01-17 12:43:13,15.08829442,0.0001249,53.2172,313.7071,83.8387,276.2748,-0.00011164,-2.064e-05,0.0,0 STARLINK-5055,1 54015U 22125BD  23017.53001319 -.00002064  00000-0 -11164-3 0  9992,2 54015  53.2172 313.7071 0001249  83.8387 276.2748 15.08829442 16424,6917.9130000000005,95.438,540.6419999999999,538.914,0.0
54015.0,STARLINK-5055,PAYLOAD,2023-01-17 19:04:45,15.08842596,7.890000000000001e-05,53.2177,312.5152,82.719,277.3892,-0.00025346,-4.319e-05,0.0,0 STARLINK-5055,1 54015U 22125BD  23017.79497435 -.00004319  00000-0 -25346-3 0  9990,2 54015  53.2177 312.5152 0000789  82.7190 277.3892 15.08842596 16511,6917.871999999999,95.437,540.283,539.192,0.0
